NUSAT-1 (FRESCO)        
1 41557U 16033B   22250.49808819  .00015470  00000+0  43725-3 0  9993
2 41557  97.3892 348.4384 0011778  86.6714  42.6766 15.36359871349973
BEESAT-4                
1 41619U 16040W   22250.08410764  .00014893  00000+0  46896-3 0  9993
2 41619  97.2103 298.6056 0009481 173.5533 186.5833 15.32974409333221
CAS-2T & KS-1Q          
1 41847U 16066G   22250.20247816  .00000418  00000+0  73436-4 0  9993
2 41847  98.5442 314.7600 0362718 325.4893  32.3217 14.38710661306105
NAYIF-1 (EO-88)         
1 42017U 17008BX  22250.14166085  .00018733  00000+0  52198-3 0  9991
2 42017  97.2626 315.1659 0003292 325.5141  34.5890 15.36826257309618
ZHUHAI-1 02 (CAS-4B)    
1 42759U 17034B   22250.49502582  .00003967  00000+0  23724-3 0  9993
2 42759  43.0152 240.3250 0008071  84.2596  60.3584 15.12372875288779
ZHUHAI-1 01 (CAS-4A)    
1 42761U 17034D   22250.45842117  .00003852  00000+0  23022-3 0  9997
2 42761  43.0162 239.2559 0008178  86.6822  49.0083 15.12456152288777
MAX VALIER SAT          
1 42778U 17036P   22250.53433991  .00007236  00000+0  26647-3 0  9998
2 42778  97.1995 288.8452 0011587  43.6229 316.5925 15.28067659289431
RADFXSAT (FOX-1B)       
1 43017U 17073E   22250.22200963  .00003268  00000+0  24894-3 0  9996
2 43017  97.6633 141.0547 0245321 280.0657  77.2962 14.81933207259229
FOX-1D (AO-92)          
1 43137U 18004AC  22250.17268728  .00010629  00000+0  36054-3 0  9991
2 43137  97.3639 324.6433 0008877  77.0727 283.1505 15.30672956258847
DIWATA-2B               
1 43678U 18084H   22250.39082006  .00001651  00000+0  16740-3 0  9991
2 43678  97.9820  24.6731 0010095  23.7532 336.4155 14.92283259210077
ES'HAIL 2               
1 43700U 18090A   22250.29077150  .00000126  00000+0  00000+0 0  9991
2 43700   0.0195 237.3015 0002144 318.0903 281.4344  1.00272660 14091
FOX-1CLIFF (AO-95)      
1 43770U 18099N   22250.42669825  .00001695  00000+0  15299-3 0  9990
2 43770  97.6146 314.6375 0014143   6.6066 353.5339 14.96749869205272
ITASAT 1                
1 43786U 18099AE  22250.14580004  .00002091  00000+0  18705-3 0  9993
2 43786  97.6175 315.3252 0014669   1.5409 358.5855 14.96855263205275
JY1SAT (JO-97)          
1 43803U 18099AX  22250.40195031  .00003173  00000+0  27720-3 0  9993
2 43803  97.6139 315.3553 0014194   0.4244 359.6987 14.97420535205333
UWE-4                   
1 43880U 18111E   22250.20887639  .00003106  00000+0  26412-3 0  9996
2 43880  97.6586 155.0806 0012782  52.4304 307.8078 14.98500607201948
NEXUS (FO-99)           
1 43937U 19003F   22250.03632217  .00012653  00000+0  40549-3 0  9995
2 43937  97.1262 280.2806 0018696 216.3786 143.6187 15.32318708202466
PSAT2 (NO-104)          
1 44354U 19036R   22250.49935271  .00081638 -47867-5  63099-3 0  9994
2 44354  28.5249 326.1527 0202708 180.8951 179.1303 15.47787261177376
JAISAT-1                
1 44419U 19038F   22250.44656913  .00006919  00000+0  33873-3 0  9993
2 44419  97.6428 221.3238 0017945 201.6319 158.4158 15.18365809175493
DUCHIFAT-3              
1 44854U 19089C   22250.52764980  .00004090  00000+0  31591-3 0  9998
2 44854  36.9677 333.6128 0007739 174.5914 269.4848 15.01513342150279
CAS-6 (TIANQIN 1)       
1 44881U 19093C   22250.49019774  .00000211  00000+0  33462-4 0  9994
2 44881  97.8887 328.5118 0013559 280.3227  79.6470 14.81801132146923
RS-44 & BREEZE-KM R/B   
1 44909U 19096E   22250.28278774  .00000008  00000+0 -20369-4 0  9999
2 44909  82.5253 175.9210 0218128 128.2092 233.8873 12.79714639125971
ORBITAL FACTORY 2 (OF-2)
1 45113U 19071C   22250.52535644  .00030047  00000+0  54791-3 0  9999
2 45113  51.6381  14.4395 0008121 112.1793 248.0058 15.49155223146085
HUSKYSAT-1 (HO-107)     
1 45119U 19071J   22250.39848351  .00027991  00000+0  53700-3 0  9995
2 45119  51.6381  15.8104 0008256 107.6626 252.5264 15.47734811146046
BY70-2                  
1 45857U 20042B   22250.55815206  .00006773  00000+0  88792-3 0  9999
2 45857  97.9510 326.6506 0010371 202.2319 157.8439 14.80615741117600
SALSAT                  
1 46495U 20068K   22250.49277506  .00002042  00000+0  14882-3 0  9998
2 46495  97.7334 191.8499 0016588   7.0555 353.0901 15.04795620106528
BY70-3                  
1 46839U 20079N   22250.58841690  .00027882  00000+0  58997-3 0  9997
2 46839  97.1912 321.7519 0005667  50.9445  85.0113 15.45081291102917
RADFXSAT-2 (AO-109)     
1 47311U 21002C   22250.44540405  .00007920  00000+0  30870-3 0  9996
2 47311  60.6855  53.3378 0030803  33.9563 326.3488 15.26380274 90977
UVSQ-SAT                
1 47438U 21006AB  22250.12188153  .00006170  00000+0  32000-3 0  9996
2 47438  97.4305 307.4657 0011343 359.7909   0.3318 15.16455936 89650
DIY-1 (ARDUIQUBE)       
1 47963U 21022AH  22250.20613903  .00017261  00000+0  91036-3 0  9999
2 47963  97.5228 150.7015 0014918 203.1404 156.9158 15.15531267 79322
XW-3 (CAS-9)            
1 50466U 21131B   22250.45727734  .00000157  00000+0  65917-4 0  9993
2 50466  98.5766 327.6581 0003416 258.4909 101.5894 14.38519705 36704
TEVEL-3                 
1 50988U 22002E   22250.41300762  .00008808  00000+0  47050-3 0  9992
2 50988  97.4760 316.0486 0010751 136.3800 352.3248 15.15291591 35822
TEVEL-8                 
1 50989U 22002F   22250.47376454  .00008234  00000+0  44076-3 0  9998
2 50989  97.4781 316.1358 0010823 134.6408 281.9840 15.15237086 35835
TEVEL-5                 
1 50998U 22002Q   22250.47401138  .00008472  00000+0  44619-3 0  9993
2 50998  97.4749 316.2490 0012410 132.6289 358.2612 15.15788474 35844
TEVEL-6                 
1 50999U 22002R   22250.45993264  .00008676  00000+0  45683-3 0  9996
2 50999  97.4748 316.2328 0012118 131.8474 285.4464 15.15794171 35843
TEVEL-1                 
1 51013U 22002AF  22250.54478802  .00008395  00000+0  44898-3 0  9995
2 51013  97.4760 316.1541 0010715 136.2648 331.4252 15.15265606 35847
TEVEL-7                 
1 51062U 22002CG  22250.42269699  .00008486  00000+0  45425-3 0  9996
2 51062  97.4763 316.0684 0010779 135.2875 353.2062 15.15229132 35825
TEVEL-4                 
1 51063U 22002CH  22250.42362071  .00008312  00000+0  44514-3 0  9991
2 51063  97.4763 316.0657 0010860 135.4996 352.9391 15.15218805 35829
TEVEL-2                 
1 51069U 22002CP  22250.46713144  .00008543  00000+0  45659-3 0  9999
2 51069  97.4752 316.0849 0010735 136.2810 279.8170 15.15284650 35835
YUZGU 9 (RS3S)          
1 53308U 98067TT  22250.46833697  .00040127  00000+0  63007-3 0  9998
2 53308  51.6405 288.4208 0000688 137.2604 222.8440 15.53250479  7492
YUZGU 7 (RS1S)          
1 53309U 98067TU  22250.53112610  .00040926  00000+0  64013-3 0  9997
2 53309  51.6401 288.0890 0000735 219.5230 140.5707 15.53348608  7454
YUZGU 11 (RS5S)         
1 53310U 98067TV  22250.01758832  .00051978  00000+0  81358-3 0  9994
2 53310  51.6409 290.6610 0000534 224.0699 136.0249 15.53222910  7403
YUZGU 12 (RS6S)         
1 53311U 98067TW  22250.52798856  .00040474  00000+0  62969-3 0  9997
2 53311  51.6400 288.0677 0000941 110.9499 249.1592 15.53501505  7500
TSIOLKOVSKY-RYAZAN 1 (*)
1 53312U 98067TX  22250.52949110  .00040969  00000+0  63951-3 0  9990
2 53312  51.6405 288.0788 0000931 227.9219 132.1692 15.53404154  7444
TSIOLKOVSKY-RYAZAN 2 (*)
1 53313U 98067TY  22250.52818718  .00040233  00000+0  62752-3 0  9992
2 53313  51.6404 288.0708 0000600 261.1189  98.9733 15.53434285  7493
YUZGU 10 (RS4S)         
1 53321U 98067TZ  22250.53311910  .00040454  00000+0  63458-3 0  9993
2 53321  51.6408 288.1056 0000452 162.6277 197.4729 15.53273512  7495
RS29S (SXC3-2110 CYCLO*)
1 53373U 22096D   22250.59238116  .00010534  00000+0  42752-3 0  9991
2 53373  97.4331 151.8412 0003725  87.4611 357.1556 15.24779197  4464
RS32S (SXC3-212 MONITO*)
1 53374U 22096E   22250.59048009  .00010659  00000+0  43118-3 0  9997
2 53374  97.4334 151.8431 0003624  85.0191   0.3668 15.24888610  4466
RS34S (SXC3-218 KUZBAS*)
1 53375U 22096F   22250.53189905  .00009122  00000+0  36971-3 0  9995
2 53375  97.4342 151.7857 0003702  85.6047  39.1278 15.24865915  4459
RS23S (SXC3-21 UTMN)    
1 53376U 22096G   22250.53114645  .00008198  00000+0  33233-3 0  9995
2 53376  97.4337 151.7871 0003513  82.1538  42.3368 15.24896204  4458
RS28S (SXC3-214 MIET-A*)
1 53377U 22096H   22250.53061520  .00009153  00000+0  37029-3 0  9998
2 53377  97.4339 151.7887 0003611  81.6463  42.8575 15.24929755  4451
RS26S (KAI-1)           
1 53378U 22096J   22250.46196536  .00007884  00000+0  31932-3 0  9993
2 53378  97.4332 151.7209 0003445  78.2246  32.7651 15.24936367  4448
RS19S (SXC3-219 ISOI)   
1 53381U 22096M   22250.52227057  .00008772  00000+0  35034-3 0  9991
2 53381  97.4340 151.7985 0004240  18.3333 106.7323 15.25372800  4454
RS21S (CUBESX-HSE-2)    
1 53383U 22096P   22250.51923641  .00008400  00000+0  33510-3 0  9999
2 53383  97.4340 151.7988 0004308  17.2620  97.4468 15.25424078  4452
RS30S (SXC3-217 SIREN)  
1 53384U 22096Q   22250.52077635  .00007777  00000+0  31040-3 0  9996
2 53384  97.4323 151.7995 0004257  15.8823 109.2386 15.25431574  4454
RS20S (GEOSCAN-EDELVEIS)
1 53385U 22096R   22250.51759435  .00011093  00000+0  43842-3 0  9990
2 53385  97.4324 151.8041 0004843  13.8823 111.3730 15.25653059  4482
RS33S (SXC3-215 VIZARD) 
1 53386U 22096S   22250.44592416  .00012453  00000+0  48774-3 0  9997
2 53386  97.4329 151.7457 0005719  11.9618 104.2176 15.25922021  4463
